CCSDS_OMM_VERS = 2.0
CREATION_DATE  = 
ORIGINATOR     = 

OBJECT_NAME    = COSMOS 1933
OBJECT_ID      = 1988-020A
CENTER_NAME    = EARTH
REF_FRAME      = TEME
TIME_SYSTEM    = UTC
MEAN_ELEMENT_THEORY = SGP/SGP4

EPOCH          = 2026-02-04T16:41:37.324896
MEAN_MOTION    = 15.17693607
ECCENTRICITY   = .0003448
INCLINATION    = 82.5127
RA_OF_ASC_NODE = 283.5540
ARG_OF_PERICENTER = 339.0585
MEAN_ANOMALY   = 21.0506

EPHEMERIS_TYPE = 0
CLASSIFICATION_TYPE = U
NORAD_CAT_ID   = 18958
ELEMENT_SET_NO = 999
REV_AT_EPOCH   = 4522
BSTAR          = .26676E-3
MEAN_MOTION_DOT = .5405E-4
MEAN_MOTION_DDOT = 0

CCSDS_OMM_VERS = 2.0
CREATION_DATE  = 
ORIGINATOR     = 

OBJECT_NAME    = SL-3 R/B
OBJECT_ID      = 1988-032B
CENTER_NAME    = EARTH
REF_FRAME      = TEME
TIME_SYSTEM    = UTC
MEAN_ELEMENT_THEORY = SGP/SGP4

EPOCH          = 2026-02-04T19:26:40.866144
MEAN_MOTION    = 15.19471579
ECCENTRICITY   = .0025979
INCLINATION    = 97.5148
RA_OF_ASC_NODE = 19.2011
ARG_OF_PERICENTER = 353.2216
MEAN_ANOMALY   = 6.8663

EPHEMERIS_TYPE = 0
CLASSIFICATION_TYPE = U
NORAD_CAT_ID   = 19046
ELEMENT_SET_NO = 999
REV_AT_EPOCH   = 4711
BSTAR          = .34937E-3
MEAN_MOTION_DOT = .7407E-4
MEAN_MOTION_DDOT = 0

CCSDS_OMM_VERS = 2.0
CREATION_DATE  = 
ORIGINATOR     = 

OBJECT_NAME    = SL-16 R/B
OBJECT_ID      = 1988-039B
CENTER_NAME    = EARTH
REF_FRAME      = TEME
TIME_SYSTEM    = UTC
MEAN_ELEMENT_THEORY = SGP/SGP4

EPOCH          = 2026-02-04T17:19:30.738720
MEAN_MOTION    = 14.19611474
ECCENTRICITY   = .0020756
INCLINATION    = 71.0151
RA_OF_ASC_NODE = 138.2601
ARG_OF_PERICENTER = 24.9558
MEAN_ANOMALY   = 335.2566

EPHEMERIS_TYPE = 0
CLASSIFICATION_TYPE = U
NORAD_CAT_ID   = 19120
ELEMENT_SET_NO = 999
REV_AT_EPOCH   = 95370
BSTAR          = .24294E-4
MEAN_MOTION_DOT = .3E-7
MEAN_MOTION_DDOT = 0

CCSDS_OMM_VERS = 2.0
CREATION_DATE  = 
ORIGINATOR     = 

OBJECT_NAME    = COSMOS 1953
OBJECT_ID      = 1988-050A
CENTER_NAME    = EARTH
REF_FRAME      = TEME
TIME_SYSTEM    = UTC
MEAN_ELEMENT_THEORY = SGP/SGP4

EPOCH          = 2026-02-04T21:15:59.547168
MEAN_MOTION    = 15.27840209
ECCENTRICITY   = .0010508
INCLINATION    = 82.5089
RA_OF_ASC_NODE = 191.2155
ARG_OF_PERICENTER = 237.1866
MEAN_ANOMALY   = 122.8362

EPHEMERIS_TYPE = 0
CLASSIFICATION_TYPE = U
NORAD_CAT_ID   = 19210
ELEMENT_SET_NO = 999
REV_AT_EPOCH   = 3277
BSTAR          = .39487E-3
MEAN_MOTION_DOT = .10783E-3
MEAN_MOTION_DDOT = 0

CCSDS_OMM_VERS = 2.0
CREATION_DATE  = 
ORIGINATOR     = 

OBJECT_NAME    = SL-8 R/B
OBJECT_ID      = 1988-053B
CENTER_NAME    = EARTH
REF_FRAME      = TEME
TIME_SYSTEM    = UTC
MEAN_ELEMENT_THEORY = SGP/SGP4

EPOCH          = 2026-02-04T20:24:47.024928
MEAN_MOTION    = 14.38895389
ECCENTRICITY   = .002023
INCLINATION    = 74.0477
RA_OF_ASC_NODE = 172.9908
ARG_OF_PERICENTER = 358.6027
MEAN_ANOMALY   = 114.2896

EPHEMERIS_TYPE = 0
CLASSIFICATION_TYPE = U
NORAD_CAT_ID   = 19257
ELEMENT_SET_NO = 999
REV_AT_EPOCH   = 97187
BSTAR          = .10457E-3
MEAN_MOTION_DOT = .296E-5
MEAN_MOTION_DDOT = 0

CCSDS_OMM_VERS = 2.0
CREATION_DATE  = 
ORIGINATOR     = 

OBJECT_NAME    = COSMOS 1975
OBJECT_ID      = 1988-093A
CENTER_NAME    = EARTH
REF_FRAME      = TEME
TIME_SYSTEM    = UTC
MEAN_ELEMENT_THEORY = SGP/SGP4

EPOCH          = 2026-02-04T17:08:54.831264
MEAN_MOTION    = 15.27474154
ECCENTRICITY   = .001041
INCLINATION    = 82.5229
RA_OF_ASC_NODE = 150.7614
ARG_OF_PERICENTER = 288.0974
MEAN_ANOMALY   = 71.9130

EPHEMERIS_TYPE = 0
CLASSIFICATION_TYPE = U
NORAD_CAT_ID   = 19573
ELEMENT_SET_NO = 999
REV_AT_EPOCH   = 1437
BSTAR          = .36696E-3
MEAN_MOTION_DOT = .9911E-4
MEAN_MOTION_DDOT = 0

CCSDS_OMM_VERS = 2.0
CREATION_DATE  = 
ORIGINATOR     = 

OBJECT_NAME    = SL-14 R/B
OBJECT_ID      = 1988-093B
CENTER_NAME    = EARTH
REF_FRAME      = TEME
TIME_SYSTEM    = UTC
MEAN_ELEMENT_THEORY = SGP/SGP4

EPOCH          = 2026-02-04T14:27:29.938176
MEAN_MOTION    = 14.85619469
ECCENTRICITY   = .002163
INCLINATION    = 82.5283
RA_OF_ASC_NODE = 73.1133
ARG_OF_PERICENTER = 144.1922
MEAN_ANOMALY   = 332.8096

EPHEMERIS_TYPE = 0
CLASSIFICATION_TYPE = U
NORAD_CAT_ID   = 19574
ELEMENT_SET_NO = 999
REV_AT_EPOCH   = 99612
BSTAR          = .59988E-4
MEAN_MOTION_DOT = .546E-5
MEAN_MOTION_DDOT = 0

CCSDS_OMM_VERS = 2.0
CREATION_DATE  = 
ORIGINATOR     = 

OBJECT_NAME    = SL-16 R/B
OBJECT_ID      = 1988-102B
CENTER_NAME    = EARTH
REF_FRAME      = TEME
TIME_SYSTEM    = UTC
MEAN_ELEMENT_THEORY = SGP/SGP4

EPOCH          = 2026-02-04T18:39:01.025280
MEAN_MOTION    = 14.16145953
ECCENTRICITY   = .001224
INCLINATION    = 70.9970
RA_OF_ASC_NODE = 220.7444
ARG_OF_PERICENTER = 56.0338
MEAN_ANOMALY   = 304.1946

EPHEMERIS_TYPE = 0
CLASSIFICATION_TYPE = U
NORAD_CAT_ID   = 19650
ELEMENT_SET_NO = 999
REV_AT_EPOCH   = 92223
BSTAR          = .54321E-5
MEAN_MOTION_DOT = -.37E-6
MEAN_MOTION_DDOT = 0

CCSDS_OMM_VERS = 2.0
CREATION_DATE  = 
ORIGINATOR     = 

OBJECT_NAME    = INTERCOSMOS 24
OBJECT_ID      = 1989-080A
CENTER_NAME    = EARTH
REF_FRAME      = TEME
TIME_SYSTEM    = UTC
MEAN_ELEMENT_THEORY = SGP/SGP4

EPOCH          = 2026-02-04T16:20:56.801472
MEAN_MOTION    = 12.59512764
ECCENTRICITY   = .1188283
INCLINATION    = 82.6071
RA_OF_ASC_NODE = 125.8871
ARG_OF_PERICENTER = 9.4626
MEAN_ANOMALY   = 352.6840

EPHEMERIS_TYPE = 0
CLASSIFICATION_TYPE = U
NORAD_CAT_ID   = 20261
ELEMENT_SET_NO = 999
REV_AT_EPOCH   = 66264
BSTAR          = .17717E-3
MEAN_MOTION_DOT = .616E-5
MEAN_MOTION_DDOT = 0

CCSDS_OMM_VERS = 2.0
CREATION_DATE  = 
ORIGINATOR     = 

OBJECT_NAME    = SL-14 R/B
OBJECT_ID      = 1989-080C
CENTER_NAME    = EARTH
REF_FRAME      = TEME
TIME_SYSTEM    = UTC
MEAN_ELEMENT_THEORY = SGP/SGP4

EPOCH          = 2026-02-04T19:53:22.441344
MEAN_MOTION    = 12.50454656
ECCENTRICITY   = .122942
INCLINATION    = 82.5939
RA_OF_ASC_NODE = 194.2824
ARG_OF_PERICENTER = 259.9015
MEAN_ANOMALY   = 86.1488

EPHEMERIS_TYPE = 0
CLASSIFICATION_TYPE = U
NORAD_CAT_ID   = 20262
ELEMENT_SET_NO = 999
REV_AT_EPOCH   = 65604
BSTAR          = .12798E-3
MEAN_MOTION_DOT = .422E-5
MEAN_MOTION_DDOT = 0

CCSDS_OMM_VERS = 2.0
CREATION_DATE  = 
ORIGINATOR     = 

OBJECT_NAME    = DELTA 1 R/B
OBJECT_ID      = 1989-089B
CENTER_NAME    = EARTH
REF_FRAME      = TEME
TIME_SYSTEM    = UTC
MEAN_ELEMENT_THEORY = SGP/SGP4

EPOCH          = 2026-02-04T13:56:28.929696
MEAN_MOTION    = 14.50634273
ECCENTRICITY   = .006795
INCLINATION    = 97.0728
RA_OF_ASC_NODE = 248.2802
ARG_OF_PERICENTER = 226.5532
MEAN_ANOMALY   = 133.0001

EPHEMERIS_TYPE = 0
CLASSIFICATION_TYPE = U
NORAD_CAT_ID   = 20323
ELEMENT_SET_NO = 999
REV_AT_EPOCH   = 89093
BSTAR          = .1307E-3
MEAN_MOTION_DOT = .492E-5
MEAN_MOTION_DDOT = 0

CCSDS_OMM_VERS = 2.0
CREATION_DATE  = 
ORIGINATOR     = 

OBJECT_NAME    = ARIANE 40 R/B
OBJECT_ID      = 1990-005H
CENTER_NAME    = EARTH
REF_FRAME      = TEME
TIME_SYSTEM    = UTC
MEAN_ELEMENT_THEORY = SGP/SGP4

EPOCH          = 2026-02-04T17:39:09.393696
MEAN_MOTION    = 14.39847764
ECCENTRICITY   = .0009066
INCLINATION    = 98.3153
RA_OF_ASC_NODE = 97.3669
ARG_OF_PERICENTER = 307.8103
MEAN_ANOMALY   = 52.2264

EPHEMERIS_TYPE = 0
CLASSIFICATION_TYPE = U
NORAD_CAT_ID   = 20443
ELEMENT_SET_NO = 999
REV_AT_EPOCH   = 88806
BSTAR          = .12405E-3
MEAN_MOTION_DOT = .347E-5
MEAN_MOTION_DDOT = 0

