COSMOS 1933             
1 18958U 88020A   26035.69557089  .00005405  00000+0  26676-3 0  9997
2 18958  82.5127 283.5540 0003448 339.0585  21.0506 15.17693607 45229
SL-3 R/B                
1 19046U 88032B   26035.81019521  .00007407  00000+0  34937-3 0  9990
2 19046  97.5148  19.2011 0025979 353.2216   6.8663 15.19471579 47115
SL-16 R/B               
1 19120U 88039B   26035.72188355  .00000003  00000+0  24294-4 0  9993
2 19120  71.0151 138.2601 0020756  24.9558 335.2566 14.19611474953706
COSMOS 1953             
1 19210U 88050A   26035.88610587  .00010783  00000+0  39487-3 0  9995
2 19210  82.5089 191.2155 0010508 237.1866 122.8362 15.27840209 32779
SL-8 R/B                
1 19257U 88053B   26035.85054427  .00000296  00000+0  10457-3 0  9995
2 19257  74.0477 172.9908 0020230 358.6027 114.2896 14.38895389971870
COSMOS 1975             
1 19573U 88093A   26035.71452351  .00009911  00000+0  36696-3 0  9999
2 19573  82.5229 150.7614 0010410 288.0974  71.9130 15.27474154 14379
SL-14 R/B               
1 19574U 88093B   26035.60242984  .00000546  00000+0  59988-4 0  9992
2 19574  82.5283  73.1133 0021630 144.1922 332.8096 14.85619469996120
SL-16 R/B               
1 19650U 88102B   26035.77709520 -.00000037  00000+0  54321-5 0  9993
2 19650  70.9970 220.7444 0012240  56.0338 304.1946 14.16145953922236
INTERCOSMOS 24          
1 20261U 89080A   26035.68121298  .00000616  00000+0  17717-3 0  9997
2 20261  82.6071 125.8871 1188283   9.4626 352.6840 12.59512764662641
SL-14 R/B               
1 20262U 89080C   26035.82873196  .00000422  00000+0  12798-3 0  9994
2 20262  82.5939 194.2824 1229420 259.9015  86.1488 12.50454656656045
DELTA 1 R/B             
1 20323U 89089B   26035.58089039  .00000492  00000+0  13070-3 0  9990
2 20323  97.0728 248.2802 0067950 226.5532 133.0001 14.50634273890935
ARIANE 40 R/B           
1 20443U 90005H   26035.73552539  .00000347  00000+0  12405-3 0  9990
2 20443  98.3153  97.3669 0009066 307.8103  52.2264 14.39847764888061
